O3B FM5                 
1 39188U 13031A   26171.23823031 -.00000024  00000+0  00000+0 0  9991
2 39188   0.0979 343.2810 0002917  92.7743 283.9749  5.00115674237191
O3B FM4                 
1 39189U 13031B   26170.15831673 -.00000024  00000+0  00000+0 0  9993
2 39189   0.0422 346.3689 0005069  90.8982 282.7872  5.00115263237141
O3B FM2                 
1 39190U 13031C   26171.02338341 -.00000024  00000+0  00000+0 0  9996
2 39190   0.0372 341.1553 0002756 104.1157 274.7581  5.00116048237255
O3B PFM                 
1 39191U 13031D   26171.23739391 -.00000024  00000+0  00000+0 0  9990
2 39191   0.0676 351.4590 0005350  91.4750 277.1245  5.00116016236829
O3B FM3                 
1 40079U 14038A   26171.10418086 -.00000024  00000+0  00000+0 0  9996
2 40079   0.0480 353.7178 0002353 153.7057 212.5887  5.00115672213195
O3B FM7                 
1 40080U 14038B   26171.25018743 -.00000024  00000+0  00000+0 0  9990
2 40080   0.0470 344.8361 0003798  77.2780 297.9219  5.00115643218030
O3B FM6                 
1 40081U 14038C   26171.27716725 -.00000024  00000+0  00000+0 0  9998
2 40081   0.0470 350.4633 0002637  97.5493 272.0152  5.00115726217988
O3B FM8                 
1 40082U 14038D   26171.13052873 -.00000024  00000+0  00000+0 0  9991
2 40082   0.0470 349.2203 0002757 101.3096 269.4992  5.00116050218090
O3B FM10                
1 40348U 14083A   26169.75852308 -.00000023  00000+0  00000+0 0  9991
2 40348   0.0376 329.7309 0002678 117.5455 272.7519  5.00115243209972
O3B FM11                
1 40349U 14083B   26170.57073489 -.00000024  00000+0  00000+0 0  9990
2 40349   0.0555 354.2093 0002686  77.7175 288.1001  5.00115539210034
O3B FM12                
1 40350U 14083C   26170.99752779 -.00000024  00000+0  00000+0 0  9994
2 40350   0.0546 354.2593 0002525  92.2470 273.5202  5.00115931210063
O3B FM9                 
1 40351U 14083D   26171.22424779 -.00000024  00000+0  00000+0 0  9998
2 40351   0.0564 353.4273 0002706  93.8298 272.7715  5.00115983210221
LEO 1 (LEO VANTAGE 1)   
1 43113U 18004C   26171.31795124  .00003228  00000+0  22451-3 0  9995
2 43113  99.2428  90.0155 0351162  69.9120 293.9508 14.67819057437944
O3B FM15                
1 43231U 18024A   26169.49203947 -.00000023  00000+0  00000+0 0  9994
2 43231   0.0516   1.9456 0002620  83.8709 274.2112  5.00115790151090
O3B FM16                
1 43232U 18024B   26171.14349539 -.00000024  00000+0  00000+0 0  9999
2 43232   0.0513   6.3997 0002645  79.8784 273.7498  5.00115959151090
O3B FM14                
1 43233U 18024C   26171.38419139 -.00000024  00000+0  00000+0 0  9990
2 43233   0.0500   7.2586 0002878  82.2046 270.5674  5.00115735151103
O3B FM13                
1 43234U 18024D   26166.25294988 -.00000017  00000+0  00000+0 0  9996
2 43234   0.0569 264.3115 0023994  53.5604  41.9436  5.00080194150954
O3B FM20                
1 44112U 19020A   26171.21035846 -.00000024  00000+0  00000+0 0  9995
2 44112   0.0522 358.1977 0002425  82.5591 279.2683  5.00115596131729
O3B FM19                
1 44113U 19020B   26171.23738051 -.00000024  00000+0  00000+0 0  9996
2 44113   0.0767 339.7870 0003900  91.3644 288.8886  5.00115961131596
O3B FM17                
1 44114U 19020C   26170.91776301 -.00000024  00000+0  00000+0 0  9991
2 44114   0.0338   7.9381 0002581  79.8410 272.2480  5.00115533131657
O3B FM18                
1 44115U 19020D   26171.26387612 -.00000024  00000+0  00000+0 0  9994
2 44115   0.0526 358.0710 0002769  90.9871 270.9712  5.00115338131809
SALSAT                  
1 46495U 20068K   26170.95810387  .00006379  00000+0  22355-3 0  9995
2 46495  97.8854 174.1914 0007892 296.5001  63.5428 15.29832652315782
O3B MPOWER F1           
1 54755U 22174A   26171.46400404 -.00000024  00000+0  00000+0 0  9996
2 54755   0.0518 341.5020 0006455 120.9944 117.8650  5.00114922 65526
O3B MPOWER F2           
1 54756U 22174B   26171.30840233 -.00000024  00000+0  00000+0 0  9998
2 54756   0.0477 341.0694 0005858 104.0711 274.9240  5.00115060 65607
O3B MPOWER F4           
1 56367U 23059A   26169.77353318 -.00000023  00000+0  00000+0 0  9991
2 56367   0.0634 354.4763 0007640  99.1856 266.4232  5.00115570 58685
O3B MPOWER F3           
1 56368U 23059B   26171.20594808 -.00000024  00000+0  00000+0 0  9995
2 56368   0.0642 353.6357 0006721  93.9986 272.4403  5.00116470 54885
O3B MPOWER F9           
1 64866U 25153A   26171.37412059 -.00000024  00000+0  00000+0 0  9999
2 64866   0.0589   9.4546 0006421 100.7311 249.8810  5.00115764 19717
O3B MPOWER F10          
1 64867U 25153B   26171.34012889 -.00000024  00000+0  00000+0 0  9994
2 64867   0.0567   5.4933 0001911 250.3426 104.1404  5.00114901 22198
